{"type": "FeatureCollection", "features": [ {"type": "Feature", "properties": {"norad_id": 38552, "name": "METEOSAT-10 (MSG-3)", "group": "weather", "lat": -3.064931954367126, "lon": 15.743771819615413, "alt_km": 35783.789356787405, "timestamp": "2025-12-26T18:39:31.915392+00:00", "meta": {"OBJECT_NAME": "METEOSAT-10 (MSG-3)", "OBJECT_ID": "2012-035B", "EPOCH": "2025-12-25T19:55:02.807904", "MEAN_MOTION": 1.00266624, "ECCENTRICITY": 0.0001479, "INCLINATION": 4.2575, "RA_OF_ASC_NODE": 61.6862, "ARG_OF_PERICENTER": 265.3349, "MEAN_ANOMALY": 66.5982, "EPHEMERIS_TYPE": 0, "CLASSIFICATION_TYPE": "U", "NORAD_CAT_ID": 38552, "ELEMENT_SET_NO": 999, "REV_AT_EPOCH": 4911, "BSTAR": 0, "MEAN_MOTION_DOT": 1.4e-07, "MEAN_MOTION_DDOT": 0}, "tle": {"line1": "1 38552U 12035B   25359.82989361  .00000014  00000+0  00000+0 0  9997", "line2": "2 38552   4.2575  61.6862 0001479 265.3349  66.5982  1.00266624 49118"}}, "geometry": {"type": "Point", "coordinates": [15.743771819615413, -3.064931954367126]}}, {"type": "Feature", "properties": {"norad_id": 38771, "name": "METOP-B", "group": "weather", "lat": -58.33764996665231, "lon": -143.8414683629756, "alt_km": 828.9953806104058, "timestamp": "2025-12-26T18:39:31.915405+00:00", "meta": {"OBJECT_NAME": "METOP-B", "OBJECT_ID": "2012-049A", "EPOCH": "2025-12-26T14:09:27.331488", "MEAN_MOTION": 14.21413556, "ECCENTRICITY": 0.00033059, "INCLINATION": 98.678, "RA_OF_ASC_NODE": 50.3126, "ARG_OF_PERICENTER": 115.4987, "MEAN_ANOMALY": 244.6532, "EPHEMERIS_TYPE": 0, "CLASSIFICATION_TYPE": "U", "NORAD_CAT_ID": 38771, "ELEMENT_SET_NO": 999, "REV_AT_EPOCH": 68874, "BSTAR": 8.2184285e-05, "MEAN_MOTION_DOT": 1.36e-06, "MEAN_MOTION_DDOT": 0}, "tle": {"line1": "1 38771U 12049A   25360.58989967  .00000136  00000+0  82184-4 0  9995", "line2": "2 38771  98.6780  50.3126 0003305 115.4987 244.6532 14.21413556688740"}}, "geometry": {"type": "Point", "coordinates": [-143.8414683629756, -58.33764996665231]}}, {"type": "Feature", "properties": {"norad_id": 39216, "name": "INSAT-3D", "group": "weather", "lat": 1.2959781996564732, "lon": 144.9178797920855, "alt_km": 35786.70912525703, "timestamp": "2025-12-26T18:39:31.915417+00:00", "meta": {"OBJECT_NAME": "INSAT-3D", "OBJECT_ID": "2013-038B", "EPOCH": "2025-12-26T13:16:21.696096", "MEAN_MOTION": 1.00273342, "ECCENTRICITY": 0.00019585, "INCLINATION": 1.4786, "RA_OF_ASC_NODE": 84.84, "ARG_OF_PERICENTER": 158.2091, "MEAN_ANOMALY": 180.8903, "EPHEMERIS_TYPE": 0, "CLASSIFICATION_TYPE": "U", "NORAD_CAT_ID": 39216, "ELEMENT_SET_NO": 999, "REV_AT_EPOCH": 4534, "BSTAR": 0, "MEAN_MOTION_DOT": -3.17e-06, "MEAN_MOTION_DDOT": 0}, "tle": {"line1": "1 39216U 13038B   25360.55302889 -.00000317  00000+0  00000+0 0  9992", "line2": "2 39216   1.4786  84.8400 0001958 158.2091 180.8903  1.00273342 45349"}}, "geometry": {"type": "Point", "coordinates": [144.9178797920855, 1.2959781996564732]}}, {"type": "Feature", "properties": {"norad_id": 39260, "name": "FENGYUN 3C", "group": "weather", "lat": -17.823960616088645, "lon": 155.02370891092724, "alt_km": 836.7961135288715, "timestamp": "2025-12-26T18:39:31.915428+00:00", "meta": {"OBJECT_NAME": "FENGYUN 3C", "OBJECT_ID": "2013-052A", "EPOCH": "2025-12-26T14:20:07.132128", "MEAN_MOTION": 14.15700454, "ECCENTRICITY": 0.00150583, "INCLINATION": 98.478, "RA_OF_ASC_NODE": 337.6011, "ARG_OF_PERICENTER": 156.1846, "MEAN_ANOMALY": 204.0028, "EPHEMERIS_TYPE": 0, "CLASSIFICATION_TYPE": "U", "NORAD_CAT_ID": 39260, "ELEMENT_SET_NO": 999, "REV_AT_EPOCH": 63414, "BSTAR": 7.587478e-05, "MEAN_MOTION_DOT": 1.08e-06, "MEAN_MOTION_DDOT": 0}, "tle": {"line1": "1 39260U 13052A   25360.59730477  .00000108  00000+0  75875-4 0  9993", "line2": "2 39260  98.4780 337.6011 0015058 156.1846 204.0028 14.15700454634144"}}, "geometry": {"type": "Point", "coordinates": [155.02370891092724, -17.823960616088645]}}, {"type": "Feature", "properties": {"norad_id": 40069, "name": "METEOR-M 2", "group": "weather", "lat": 71.64062353614203, "lon": -175.41856318787077, "alt_km": 811.675729513955, "timestamp": "2025-12-26T18:39:31.915439+00:00", "meta": {"OBJECT_NAME": "METEOR-M 2", "OBJECT_ID": "2014-037A", "EPOCH": "2025-12-26T14:46:53.231232", "MEAN_MOTION": 14.2139154, "ECCENTRICITY": 0.00056953, "INCLINATION": 98.4923, "RA_OF_ASC_NODE": 337.6692, "ARG_OF_PERICENTER": 166.8667, "MEAN_ANOMALY": 193.266, "EPHEMERIS_TYPE": 0, "CLASSIFICATION_TYPE": "U", "NORAD_CAT_ID": 40069, "ELEMENT_SET_NO": 999, "REV_AT_EPOCH": 59480, "BSTAR": 4.6014609e-05, "MEAN_MOTION_DOT": 5.9e-07, "MEAN_MOTION_DDOT": 0}, "tle": {"line1": "1 40069U 14037A   25360.61589388  .00000059  00000+0  46015-4 0  9991", "line2": "2 40069  98.4923 337.6692 0005695 166.8667 193.2660 14.21391540594800"}}, "geometry": {"type": "Point", "coordinates": [-175.41856318787077, 71.64062353614203]}}, {"type": "Feature", "properties": {"norad_id": 40267, "name": "HIMAWARI-8", "group": "weather", "lat": -0.021833629068152886, "lon": 156.05131469147193, "alt_km": 35790.110474965826, "timestamp": "2025-12-26T18:39:31.915451+00:00", "meta": {"OBJECT_NAME": "HIMAWARI-8", "OBJECT_ID": "2014-060A", "EPOCH": "2025-12-26T08:33:59.245344", "MEAN_MOTION": 1.0027063, "ECCENTRICITY": 0.00010105, "INCLINATION": 0.0427, "RA_OF_ASC_NODE": 196.506, "ARG_OF_PERICENTER": 108.6661, "MEAN_ANOMALY": 59.0936, "EPHEMERIS_TYPE": 0, "CLASSIFICATION_TYPE": "U", "NORAD_CAT_ID": 40267, "ELEMENT_SET_NO": 999, "REV_AT_EPOCH": 4102, "BSTAR": 0, "MEAN_MOTION_DOT": -2.54e-06, "MEAN_MOTION_DDOT": 0}, "tle": {"line1": "1 40267U 14060A   25360.35693571 -.00000254  00000+0  00000+0 0  9995", "line2": "2 40267   0.0427 196.5060 0001010 108.6661  59.0936  1.00270630 41029"}}, "geometry": {"type": "Point", "coordinates": [156.05131469147193, -0.021833629068152886]}}, {"type": "Feature", "properties": {"norad_id": 40367, "name": "FENGYUN 2G", "group": "weather", "lat": 3.3407972340984564, "lon": 114.55841790465794, "alt_km": 35787.86562564059, "timestamp": "2025-12-26T18:39:31.915463+00:00", "meta": {"OBJECT_NAME": "FENGYUN 2G", "OBJECT_ID": "2014-090A", "EPOCH": "2025-12-26T16:11:58.919136", "MEAN_MOTION": 1.00281469, "ECCENTRICITY": 0.00017777, "INCLINATION": 5.2004, "RA_OF_ASC_NODE": 74.9247, "ARG_OF_PERICENTER": 170.4228, "MEAN_ANOMALY": 192.356, "EPHEMERIS_TYPE": 0, "CLASSIFICATION_TYPE": "U", "NORAD_CAT_ID": 40367, "ELEMENT_SET_NO": 999, "REV_AT_EPOCH": 4027, "BSTAR": 0, "MEAN_MOTION_DOT": -2.81e-06, "MEAN_MOTION_DDOT": 0}, "tle": {"line1": "1 40367U 14090A   25360.67498749 -.00000281  00000+0  00000+0 0  9994", "line2": "2 40367   5.2004  74.9247 0001777 170.4228 192.3560  1.00281469 40272"}}, "geometry": {"type": "Point", "coordinates": [114.55841790465794, 3.3407972340984564]}}, {"type": "Feature", "properties": {"norad_id": 40732, "name": "METEOSAT-11 (MSG-4)", "group": "weather", "lat": -2.0360567716545166, "lon": 24.61267077941974, "alt_km": 35789.25812955483, "timestamp": "2025-12-26T18:39:31.915475+00:00", "meta": {"OBJECT_NAME": "METEOSAT-11 (MSG-4)", "OBJECT_ID": "2015-034A", "EPOCH": "2025-12-25T16:31:52.264704", "MEAN_MOTION": 1.00271545, "ECCENTRICITY": 6.999e-05, "INCLINATION": 2.7688, "RA_OF_ASC_NODE": 71.966, "ARG_OF_PERICENTER": 136.703, "MEAN_ANOMALY": 142.9271, "EPHEMERIS_TYPE": 0, "CLASSIFICATION_TYPE": "U", "NORAD_CAT_ID": 40732, "ELEMENT_SET_NO": 999, "REV_AT_EPOCH": 547, "BSTAR": 0, "MEAN_MOTION_DOT": 8.2e-07, "MEAN_MOTION_DDOT": 0}, "tle": {"line1": "1 40732U 15034A   25359.68879936  .00000082  00000+0  00000+0 0  9997", "line2": "2 40732   2.7688  71.9660 0000699 136.7030 142.9271  1.00271545  5479"}}, "geometry": {"type": "Point", "coordinates": [24.61267077941974, -2.0360567716545166]}}, {"type": "Feature", "properties": {"norad_id": 41105, "name": "ELEKTRO-L 2", "group": "weather", "lat": -5.948036535306443, "lon": 1.071344301944898, "alt_km": 35784.27159944858, "timestamp": "2025-12-26T18:39:31.915487+00:00", "meta": {"OBJECT_NAME": "ELEKTRO-L 2", "OBJECT_ID": "2015-074A", "EPOCH": "2025-12-26T06:33:21.537216", "MEAN_MOTION": 1.00271736, "ECCENTRICITY": 0.00036344, "INCLINATION": 6.2575, "RA_OF_ASC_NODE": 72.6671, "ARG_OF_PERICENTER": 208.1053, "MEAN_ANOMALY": 258.1181, "EPHEMERIS_TYPE": 0, "CLASSIFICATION_TYPE": "U", "NORAD_CAT_ID": 41105, "ELEMENT_SET_NO": 999, "REV_AT_EPOCH": 3677, "BSTAR": 0, "MEAN_MOTION_DOT": -9.7e-07, "MEAN_MOTION_DDOT": 0}, "tle": {"line1": "1 41105U 15074A   25360.27316594 -.00000097  00000+0  00000+0 0  9996", "line2": "2 41105   6.2575  72.6671 0003634 208.1053 258.1181  1.00271736 36778"}}, "geometry": {"type": "Point", "coordinates": [1.071344301944898, -5.948036535306443]}}, {"type": "Feature", "properties": {"norad_id": 41752, "name": "INSAT-3DR", "group": "weather", "lat": 0.019133782860046307, "lon": 89.39167587349863, "alt_km": 35846.940597907975, "timestamp": "2025-12-26T18:39:31.915500+00:00", "meta": {"OBJECT_NAME": "INSAT-3DR", "OBJECT_ID": "2016-054A", "EPOCH": "2025-12-26T03:06:52.543584", "MEAN_MOTION": 1.00271485, "ECCENTRICITY": 0.0014374, "INCLINATION": 0.0398, "RA_OF_ASC_NODE": 84.8108, "ARG_OF_PERICENTER": 187.3091, "MEAN_ANOMALY": 303.4691, "EPHEMERIS_TYPE": 0, "CLASSIFICATION_TYPE": "U", "NORAD_CAT_ID": 41752, "ELEMENT_SET_NO": 999, "REV_AT_EPOCH": 3408, "BSTAR": 0, "MEAN_MOTION_DOT": -5.5e-07, "MEAN_MOTION_DDOT": 0}, "tle": {"line1": "1 41752U 16054A   25360.12977481 -.00000055  00000+0  00000+0 0  9999", "line2": "2 41752   0.0398  84.8108 0014374 187.3091 303.4691  1.00271485 34087"}}, "geometry": {"type": "Point", "coordinates": [89.39167587349863, 0.019133782860046307]}}]}